{
  "type": "FeatureCollection",
  "features": [
    {
      "type": "Feature",
      "properties": {
        "norad_id": 66502,
        "name": "STARLINK-35922",
        "group": "last-30-days",
        "lat": 26.73074611202232,
        "lon": 166.74916446920795,
        "alt_km": 411.37132284352356,
        "timestamp": "2025-12-11T05:00:25.074668+00:00",
        "meta_object_name": "STARLINK-35922",
        "meta_object_id": "2025-263T",
        "meta_epoch": "2025-12-10T22:00:03.000096",
        "meta_mean_motion": 15.5058522,
        "meta_eccentricity": 0.00015132,
        "meta_inclination": 43.0004,
        "meta_ra_of_asc_node": 135.7431,
        "meta_arg_of_pericenter": 278.1981,
        "meta_mean_anomaly": 291.6495,
        "meta_ephemeris_type": 0,
        "meta_classification_type": "U",
        "meta_norad_cat_id": 66502,
        "meta_element_set_no": 999,
        "meta_rev_at_epoch": 534,
        "meta_bstar": -0.00065746274,
        "meta_mean_motion_dot": -0.0003873,
        "meta_mean_motion_ddot": 0,
        "tle_line1": "1 66502U 25263T   25344.91670139 -.00038730  00000+0 -65746-3 0  9994",
        "tle_line2": "2 66502  43.0004 135.7431 0001513 278.1981 291.6495 15.50585220  5343"
      },
      "geometry": {
        "type": "Point",
        "coordinates": [
          166.74916446920795,
          26.73074611202232
        ]
      }
    },
    {
      "type": "Feature",
      "properties": {
        "norad_id": 66503,
        "name": "STARLINK-35917",
        "group": "last-30-days",
        "lat": 28.88488237229207,
        "lon": 170.3273760355746,
        "alt_km": 411.1195739753366,
        "timestamp": "2025-12-11T05:00:25.074678+00:00",
        "meta_object_name": "STARLINK-35917",
        "meta_object_id": "2025-263U",
        "meta_epoch": "2025-12-10T22:00:03.000096",
        "meta_mean_motion": 15.50555472,
        "meta_eccentricity": 0.00016652,
        "meta_inclination": 43.0004,
        "meta_ra_of_asc_node": 135.7344,
        "meta_arg_of_pericenter": 275.845,
        "meta_mean_anomaly": 297.8392,
        "meta_ephemeris_type": 0,
        "meta_classification_type": "U",
        "meta_norad_cat_id": 66503,
        "meta_element_set_no": 999,
        "meta_rev_at_epoch": 534,
        "meta_bstar": 0.00073831437,
        "meta_mean_motion_dot": 0.00043175,
        "meta_mean_motion_ddot": 0,
        "tle_line1": "1 66503U 25263U   25344.91670139  .00043175  00000+0  73831-3 0  9996",
        "tle_line2": "2 66503  43.0004 135.7344 0001665 275.8450 297.8392 15.50555472  5340"
      },
      "geometry": {
        "type": "Point",
        "coordinates": [
          170.3273760355746,
          28.88488237229207
        ]
      }
    },
    {
      "type": "Feature",
      "properties": {
        "norad_id": 66504,
        "name": "STARLINK-35916",
        "group": "last-30-days",
        "lat": -1.2183838711577724,
        "lon": -43.23744966179841,
        "alt_km": 443.898353186898,
        "timestamp": "2025-12-11T05:00:25.074688+00:00",
        "meta_object_name": "STARLINK-35916",
        "meta_object_id": "2025-263V",
        "meta_epoch": "2025-12-10T20:26:33.442944",
        "meta_mean_motion": 15.40704889,
        "meta_eccentricity": 0.00014959,
        "meta_inclination": 43,
        "meta_ra_of_asc_node": 137.5117,
        "meta_arg_of_pericenter": 273.5893,
        "meta_mean_anomaly": 86.4792,
        "meta_ephemeris_type": 0,
        "meta_classification_type": "U",
        "meta_norad_cat_id": 66504,
        "meta_element_set_no": 999,
        "meta_rev_at_epoch": 525,
        "meta_bstar": 0.0015358905,
        "meta_mean_motion_dot": 0.00064408,
        "meta_mean_motion_ddot": 0,
        "tle_line1": "1 66504U 25263V   25344.85177596  .00064408  00000+0  15359-2 0  9991",
        "tle_line2": "2 66504  43.0000 137.5117 0001495 273.5893  86.4792 15.40704889  5255"
      },
      "geometry": {
        "type": "Point",
        "coordinates": [
          -43.23744966179841,
          -1.2183838711577724
        ]
      }
    },
    {
      "type": "Feature",
      "properties": {
        "norad_id": 66505,
        "name": "STARLINK-34766",
        "group": "last-30-days",
        "lat": 24.48744997034126,
        "lon": 163.3044569451766,
        "alt_km": 411.77891604141496,
        "timestamp": "2025-12-11T05:00:25.074702+00:00",
        "meta_object_name": "STARLINK-34766",
        "meta_object_id": "2025-263W",
        "meta_epoch": "2025-12-10T22:00:03.000096",
        "meta_mean_motion": 15.50589008,
        "meta_eccentricity": 0.00016614,
        "meta_inclination": 43.0006,
        "meta_ra_of_asc_node": 135.7531,
        "meta_arg_of_pericenter": 274.7088,
        "meta_mean_anomaly": 291.3001,
        "meta_ephemeris_type": 0,
        "meta_classification_type": "U",
        "meta_norad_cat_id": 66505,
        "meta_element_set_no": 999,
        "meta_rev_at_epoch": 534,
        "meta_bstar": -0.00075070311,
        "meta_mean_motion_dot": -0.0004415,
        "meta_mean_motion_ddot": 0,
        "tle_line1": "1 66505U 25263W   25344.91670139 -.00044150  00000+0 -75070-3 0  9991",
        "tle_line2": "2 66505  43.0006 135.7531 0001661 274.7088 291.3001 15.50589008  5341"
      },
      "geometry": {
        "type": "Point",
        "coordinates": [
          163.3044569451766,
          24.48744997034126
        ]
      }
    },
    {
      "type": "Feature",
      "properties": {
        "norad_id": 66506,
        "name": "STARLINK-34765",
        "group": "last-30-days",
        "lat": 25.616121170068087,
        "lon": 165.00678118971638,
        "alt_km": 411.6343915982543,
        "timestamp": "2025-12-11T05:00:25.074712+00:00",
        "meta_object_name": "STARLINK-34765",
        "meta_object_id": "2025-263X",
        "meta_epoch": "2025-12-10T22:00:03.000096",
        "meta_mean_motion": 15.50583859,
        "meta_eccentricity": 0.00015727,
        "meta_inclination": 43.0005,
        "meta_ra_of_asc_node": 135.7491,
        "meta_arg_of_pericenter": 272.4088,
        "meta_mean_anomaly": 295.5171,
        "meta_ephemeris_type": 0,
        "meta_classification_type": "U",
        "meta_norad_cat_id": 66506,
        "meta_element_set_no": 999,
        "meta_rev_at_epoch": 534,
        "meta_bstar": -0.00063118915,
        "meta_mean_motion_dot": -0.00037201,
        "meta_mean_motion_ddot": 0,
        "tle_line1": "1 66506U 25263X   25344.91670139 -.00037201  00000+0 -63119-3 0  9992",
        "tle_line2": "2 66506  43.0005 135.7491 0001572 272.4088 295.5171 15.50583859  5344"
      },
      "geometry": {
        "type": "Point",
        "coordinates": [
          165.00678118971638,
          25.616121170068087
        ]
      }
    },
    {
      "type": "Feature",
      "properties": {
        "norad_id": 66507,
        "name": "STARLINK-34767",
        "group": "last-30-days",
        "lat": 27.522172849016563,
        "lon": 168.02849134053704,
        "alt_km": 414.51752180999756,
        "timestamp": "2025-12-11T05:00:25.074722+00:00",
        "meta_object_name": "STARLINK-34767",
        "meta_object_id": "2025-263Y",
        "meta_epoch": "2025-12-10T22:00:03.000096",
        "meta_mean_motion": 15.5072533,
        "meta_eccentricity": 0.0001476,
        "meta_inclination": 43.0006,
        "meta_ra_of_asc_node": 135.7377,
        "meta_arg_of_pericenter": 281.6866,
        "meta_mean_anomaly": 290.0632,
        "meta_ephemeris_type": 0,
        "meta_classification_type": "U",
        "meta_norad_cat_id": 66507,
        "meta_element_set_no": 999,
        "meta_rev_at_epoch": 534,
        "meta_bstar": -0.038095879,
        "meta_mean_motion_dot": -0.02006323,
        "meta_mean_motion_ddot": 0,
        "tle_line1": "1 66507U 25263Y   25344.91670139 -.02006323  00000+0 -38096-1 0  9990",
        "tle_line2": "2 66507  43.0006 135.7377 0001476 281.6866 290.0632 15.50725330  5342"
      },
      "geometry": {
        "type": "Point",
        "coordinates": [
          168.02849134053704,
          27.522172849016563
        ]
      }
    },
    {
      "type": "Feature",
      "properties": {
        "norad_id": 66508,
        "name": "STARLINK-35608",
        "group": "last-30-days",
        "lat": 30.943141901498098,
        "lon": 174.05828770091756,
        "alt_km": 410.8788122247279,
        "timestamp": "2025-12-11T05:00:25.074731+00:00",
        "meta_object_name": "STARLINK-35608",
        "meta_object_id": "2025-263Z",
        "meta_epoch": "2025-12-10T22:00:03.000096",
        "meta_mean_motion": 15.50595933,
        "meta_eccentricity": 0.00015287,
        "meta_inclination": 43.0004,
        "meta_ra_of_asc_node": 135.7243,
        "meta_arg_of_pericenter": 273.2251,
        "meta_mean_anomaly": 304.2859,
        "meta_ephemeris_type": 0,
        "meta_classification_type": "U",
        "meta_norad_cat_id": 66508,
        "meta_element_set_no": 999,
        "meta_rev_at_epoch": 534,
        "meta_bstar": -0.00098448632,
        "meta_mean_motion_dot": -0.00057708,
        "meta_mean_motion_ddot": 0,
        "tle_line1": "1 66508U 25263Z   25344.91670139 -.00057708  00000+0 -98449-3 0  9992",
        "tle_line2": "2 66508  43.0004 135.7243 0001528 273.2251 304.2859 15.50595933  5349"
      },
      "geometry": {
        "type": "Point",
        "coordinates": [
          174.05828770091756,
          30.943141901498098
        ]
      }
    }
  ]
}